SENTINEL-6A             
1 46984U 20086A   26198.92547703 -.00000047  00000+0  62706-4 0  9996
2 46984  66.0412  71.2096 0007775 269.6881  90.3243 12.80930208264267
SENTINEL-6B             
1 66514U 25264A   26198.92582496 -.00000045  00000+0  69349-4 0  9996
2 66514  66.0411  71.3350 0007834 268.5138  91.4980 12.80930218 31106
