{"fetched_at":"2026-07-18T06:28:27.138Z","source":"https://celestrak.org/NORAD/elements/gp.php?NAME=SENTINEL&FORMAT=JSON","constellation":"sentinel-6","records":[{"OBJECT_NAME":"SENTINEL-6A","OBJECT_ID":"2020-086A","EPOCH":"2026-07-17T22:12:41.215392","CLASSIFICATION_TYPE":"U","MEAN_MOTION":12.80930208,"ECCENTRICITY":0.0007775,"INCLINATION":66.0412,"RA_OF_ASC_NODE":71.2096,"ARG_OF_PERICENTER":269.6881,"MEAN_ANOMALY":90.3243,"EPHEMERIS_TYPE":0,"NORAD_CAT_ID":46984,"ELEMENT_SET_NO":999,"REV_AT_EPOCH":26426,"BSTAR":0.000062706471,"MEAN_MOTION_DOT":-4.7e-7,"MEAN_MOTION_DDOT":0},{"OBJECT_NAME":"SENTINEL-6B","OBJECT_ID":"2025-264A","EPOCH":"2026-07-17T22:13:11.276544","CLASSIFICATION_TYPE":"U","MEAN_MOTION":12.80930218,"ECCENTRICITY":0.00078343,"INCLINATION":66.0411,"RA_OF_ASC_NODE":71.335,"ARG_OF_PERICENTER":268.5138,"MEAN_ANOMALY":91.498,"EPHEMERIS_TYPE":0,"NORAD_CAT_ID":66514,"ELEMENT_SET_NO":999,"REV_AT_EPOCH":3110,"BSTAR":0.000069349327,"MEAN_MOTION_DOT":-4.5e-7,"MEAN_MOTION_DDOT":0}]}
